NORAD_CAT_ID,OBJECT_NAME,OBJECT_TYPE,EPOCH,MEAN_MOTION,ECCENTRICITY,INCLINATION,RA_OF_ASC_NODE,ARG_OF_PERICENTER,MEAN_ANOMALY,BSTAR,MEAN_MOTION_DOT,MEAN_MOTION_DDOT,TLE_LINE0,TLE_LINE1,TLE_LINE2,SEMIMAJOR_AXIS,PERIOD,APOGEE,PERIGEE,DECAYED
51725.0,STARLINK-3522,PAYLOAD,2022-05-29 14:00:01,15.0879331,0.0001576999999999,53.2174,44.6577,56.5834,182.9304,0.0021751,0.00034454,0.0,0 STARLINK-3522,1 51725U 22016M   22149.58334491  .00034454  00000-0  21751-2 0  9994,2 51725  53.2174  44.6577 0001577  56.5834 182.9304 15.08793310  1306,6918.023,95.441,540.979,538.797,0.0
51725.0,STARLINK-3522,PAYLOAD,2022-05-29 20:53:32,15.08827168,0.0001708,53.2175,43.3665,45.996,314.1173,-7.6184e-05,-1.5e-05,0.0,0 STARLINK-3522,1 51725U 22016M   22149.87051286 -.00001500  00000-0 -76184-4 0  9994,2 51725  53.2175  43.3665 0001708  45.9960 314.1173 15.08827168 15115,6917.92,95.438,540.966,538.6030000000002,0.0
51725.0,STARLINK-3522,PAYLOAD,2022-05-30 14:00:01,15.08810192,0.0001595,53.2169,40.1691,58.9305,215.3011,0.0031875,0.00050765,0.0,0 STARLINK-3522,1 51725U 22016M   22150.58334491  .00050765  00000-0  31875-2 0  9997,2 51725  53.2169  40.1691 0001595  58.9305 215.3011 15.08810192 16352,6917.972,95.439,540.94,538.7330000000002,0.0
51725.0,STARLINK-3522,PAYLOAD,2022-05-30 22:00:00,15.0884834,0.0001702,53.2168,38.6743,55.5549,230.2582,-0.0010325999999999,-0.00016688,0.0,0 STARLINK-3522,1 51725U 22016M   22150.91667824 -.00016688  00000-0 -10326-2 0  9999,2 51725  53.2168  38.6743 0001702  55.5549 230.2582 15.08848340  1308,6917.855,95.437,540.8969999999998,538.5419999999998,0.0
51725.0,STARLINK-3522,PAYLOAD,2022-05-31 06:00:02,15.08858135,0.0001663,53.2163,37.178,51.4762,245.9938,-0.0033874,-0.00053823,0.0,0 STARLINK-3522,1 51725U 22016M   22151.25002315 -.00053823  00000-0 -33874-2 0  9990,2 51725  53.2163  37.1780 0001663  51.4762 245.9938 15.08858135 16459,6917.825,95.436,540.84,538.54,0.0
51725.0,STARLINK-3522,PAYLOAD,2022-05-31 22:00:00,15.08840601,0.000168,53.2163,34.1854,54.5608,266.0254,-0.00075749,-0.00012324,0.0,0 STARLINK-3522,1 51725U 22016M   22151.91667824 -.00012324  00000-0 -75749-3 0  9994,2 51725  53.2163  34.1854 0001680  54.5608 266.0254 15.08840601 16555,6917.879,95.438,540.906,538.581,0.0
51725.0,STARLINK-3522,PAYLOAD,2022-06-01 14:00:01,15.0882606,0.0001612,53.2161,31.1909,59.8346,283.9477,0.0030403,0.00048413,0.0,0 STARLINK-3522,1 51725U 22016M   22152.58334491  .00048413  00000-0  30403-2 0  9992,2 51725  53.2161  31.1909 0001612  59.8346 283.9477 15.08826060 16652,6917.9230000000025,95.438,540.903,538.673,0.0
51725.0,STARLINK-3522,PAYLOAD,2022-06-01 20:00:01,15.08863856,0.0001679,53.2166,30.0685,57.0897,205.3878,-0.0011573,-0.00018671,0.0,0 STARLINK-3522,1 51725U 22016M   22152.83334491 -.00018671  00000-0 -11573-2 0  9992,2 51725  53.2166  30.0685 0001679  57.0897 205.3878 15.08863856  1303,6917.807,95.436,540.8340000000002,538.511,0.0
51725.0,STARLINK-3522,PAYLOAD,2022-06-03 02:38:13,15.08838746,0.0001743,53.2175,24.3396,52.6904,307.4247,3.8936e-05,3.32e-06,0.0,0 STARLINK-3522,1 51725U 22016M   22154.10987588  .00000332  00000-0  38936-4 0  9992,2 51725  53.2175  24.3396 0001743  52.6904 307.4247 15.08838746 16883,6917.884,95.438,540.955,538.543,0.0
51725.0,STARLINK-3522,PAYLOAD,2022-06-03 08:59:45,15.08838646,0.0001654,53.2176,23.1498,56.127,303.9879,1.6494e-05,-2.6e-07,0.0,0 STARLINK-3522,1 51725U 22016M   22154.37483657 -.00000026  00000-0  16494-4 0  9995,2 51725  53.2176  23.1498 0001654  56.1270 303.9879 15.08838646 15790,6917.885,95.438,540.894,538.605,0.0
51725.0,STARLINK-3522,PAYLOAD,2022-06-03 16:56:41,15.08822717,0.0001203,53.2181,21.6621,44.5141,315.5948,0.00025075,3.703e-05,0.0,0 STARLINK-3522,1 51725U 22016M   22154.70603680  .00003703  00000-0  25075-3 0  9990,2 51725  53.2181  21.6621 0001203  44.5141 315.5948 15.08822717 16974,6917.933000000001,95.439,540.63,538.966,0.0
51725.0,STARLINK-3522,PAYLOAD,2022-06-03 21:42:49,15.08879377,0.000196,53.218,20.77,51.4465,308.6702,-0.00042577,-7.065e-05,0.0,0 STARLINK-3522,1 51725U 22016M   22154.90474137 -.00007065  00000-0 -42577-3 0  9998,2 51725  53.2180  20.7700 0001960  51.4465 308.6702 15.08879377 15870,6917.76,95.435,540.981,538.269,0.0
51725.0,STARLINK-3522,PAYLOAD,2022-06-04 02:28:59,15.0883879,0.0001954,53.218,19.8781,58.8992,301.2191,0.00015744,2.218e-05,0.0,0 STARLINK-3522,1 51725U 22016M   22155.10347128  .00002218  00000-0  15744-3 0  9999,2 51725  53.2180  19.8781 0001954  58.8992 301.2191 15.08838790 17032,6917.884,95.438,541.101,538.3969999999998,0.0
51725.0,STARLINK-3522,PAYLOAD,2022-06-05 22:00:00,15.08830094,0.0001892,53.2173,11.7392,57.801,76.6942,6.0957e-05,6.82e-06,0.0,0 STARLINK-3522,1 51725U 22016M   22156.91667824  .00000682  00000-0  60957-4 0  9997,2 51725  53.2173  11.7392 0001892  57.8010  76.6942 15.08830094 17311,6917.911,95.438,541.085,538.467,0.0
51725.0,STARLINK-3522,PAYLOAD,2022-06-06 14:00:01,15.08839804,0.0001759,53.2173,8.7448,66.1494,91.5214,0.0012212999999999,0.00019202,0.0,0 STARLINK-3522,1 51725U 22016M   22157.58334491  .00019202  00000-0  12213-2 0  9990,2 51725  53.2173   8.7448 0001759  66.1494  91.5214 15.08839804  1308,6917.880999999999,95.438,540.9630000000002,538.529,0.0
51725.0,STARLINK-3522,PAYLOAD,2022-06-06 22:00:00,15.08841496,0.0001868,53.2171,7.2503,59.3117,109.9659,0.00057957,8.948e-05,0.0,0 STARLINK-3522,1 51725U 22016M   22157.91667824  .00008948  00000-0  57957-3 0  9996,2 51725  53.2171   7.2503 0001868  59.3117 109.9659 15.08841496  1306,6917.876,95.437,541.033,538.4490000000002,0.0
51725.0,STARLINK-3522,PAYLOAD,2022-06-07 06:00:00,15.08873846,0.0001727,53.2167,5.7529,60.771,120.1058,-0.0045648999999999,-0.00072278,0.0,0 STARLINK-3522,1 51725U 22016M   22158.25001157 -.00072278  00000-0 -45649-2 0  9998,2 51725  53.2167   5.7529 0001727  60.7710 120.1058 15.08873846 17513,6917.776999999999,95.435,540.837,538.447,0.0
51725.0,STARLINK-3522,PAYLOAD,2022-06-07 14:00:01,15.08832814,0.0001665999999999,53.217,4.2559,66.5819,125.8971,0.00087111,0.000136,0.0,0 STARLINK-3522,1 51725U 22016M   22158.58334491  .00013600  00000-0  87111-3 0  9997,2 51725  53.2170   4.2559 0001666  66.5819 125.8971 15.08832814  1306,6917.901999999999,95.438,540.92,538.615,0.0
51725.0,STARLINK-3522,PAYLOAD,2022-06-07 22:00:00,15.08829981,0.0001785,53.2167,2.7614,58.6598,145.4194,0.0013754,0.00021663,0.0,0 STARLINK-3522,1 51725U 22016M   22158.91667824  .00021663  00000-0  13754-2 0  9992,2 51725  53.2167   2.7614 0001785  58.6598 145.4194 15.08829981 17612,6917.911,95.438,541.011,538.5409999999998,0.0
51725.0,STARLINK-3522,PAYLOAD,2022-06-08 14:00:01,15.08863103,0.0001626999999999,53.2165,359.767,66.3143,160.9592,-0.0021621,-0.00034555,0.0,0 STARLINK-3522,1 51725U 22016M   22159.58334491 -.00034555  00000-0 -21621-2 0  9995,2 51725  53.2165 359.7670 0001627  66.3143 160.9592 15.08863103  1301,6917.81,95.436,540.8,538.549,0.0
51725.0,STARLINK-3522,PAYLOAD,2022-06-08 22:00:01,15.08816556,0.0001726,53.2165,358.2723,57.0378,181.9073,0.0018331,0.00028988,0.0,0 STARLINK-3522,1 51725U 22016M   22159.91668981  .00028988  00000-0  18331-2 0  9991,2 51725  53.2165 358.2723 0001726  57.0378 181.9073 15.08816556 17765,6917.9519999999975,95.439,541.011,538.623,0.0
51725.0,STARLINK-3522,PAYLOAD,2022-06-09 14:00:01,15.08840854,0.0001563,53.2164,355.2779,63.7598,198.2874,-0.0016101,-0.00025822,0.0,0 STARLINK-3522,1 51725U 22016M   22160.58334491 -.00025822  00000-0 -16101-2 0  9991,2 51725  53.2164 355.2779 0001563  63.7598 198.2874 15.08840854  1300,6917.878000000002,95.438,540.8240000000002,538.6619999999998,0.0
51725.0,STARLINK-3522,PAYLOAD,2022-06-09 22:00:00,15.08802394,0.0001698,53.2164,353.7833,54.8282,218.8068,0.0021853,0.00034627,0.0,0 STARLINK-3522,1 51725U 22016M   22160.91667824  .00034627  00000-0  21853-2 0  9998,2 51725  53.2164 353.7833 0001698  54.8282 218.8068 15.08802394  1305,6917.995,95.44,541.035,538.686,0.0
51725.0,STARLINK-3522,PAYLOAD,2022-06-10 00:00:00,15.08800944,0.0001663,53.2163,353.4092,53.2838,313.2429,0.0029368,0.00046711,0.0,0 STARLINK-3522,1 51725U 22016M   22161.00001157  .00046711  00000-0  29368-2 0  9996,2 51725  53.2163 353.4092 0001663  53.2838 313.2429 15.08800944 17925,6918.0,95.44,541.015,538.714,0.0
51725.0,STARLINK-3522,PAYLOAD,2022-06-10 14:00:01,15.08842747,0.0001589,53.2166,350.7884,62.2532,234.5249,9.7724e-05,1.268e-05,0.0,0 STARLINK-3522,1 51725U 22016M   22161.58334491  .00001268  00000-0  97724-4 0  9990,2 51725  53.2166 350.7884 0001589  62.2532 234.5249 15.08842747 18018,6917.871999999999,95.437,540.836,538.638,0.0
51725.0,STARLINK-3522,PAYLOAD,2022-06-10 22:00:00,15.08821722,0.0001754,53.2166,349.2937,54.7255,253.655,0.0025859,0.00041086,0.0,0 STARLINK-3522,1 51725U 22016M   22161.91667824  .00041086  00000-0  25859-2 0  9996,2 51725  53.2166 349.2937 0001754  54.7255 253.6550 15.08821722  1303,6917.936,95.439,541.015,538.5880000000002,0.0
51725.0,STARLINK-3522,PAYLOAD,2022-06-11 22:00:00,15.08815267,0.0001679,53.2167,344.8043,52.483,290.7008,0.002823,0.00044896,0.0,0 STARLINK-3522,1 51725U 22016M   22162.91667824  .00044896  00000-0  28230-2 0  9995,2 51725  53.2167 344.8043 0001679  52.4830 290.7008 15.08815267 18218,6917.956,95.439,540.9830000000002,538.659,0.0
51725.0,STARLINK-3522,PAYLOAD,2022-06-12 14:00:01,15.08847791,0.0001609,53.217,341.8098,61.4027,304.9629,-0.001776,-0.00028448,0.0,0 STARLINK-3522,1 51725U 22016M   22163.58334491 -.00028448  00000-0 -17760-2 0  9993,2 51725  53.2170 341.8098 0001609  61.4027 304.9629 15.08847791 18315,6917.857,95.437,540.835,538.6080000000002,0.0
51725.0,STARLINK-3522,PAYLOAD,2022-06-12 22:00:00,15.08809873,0.0001751999999999,53.2167,340.3148,54.9881,322.9756,0.003038,0.00048354,0.0,0 STARLINK-3522,1 51725U 22016M   22163.91667824  .00048354  00000-0  30380-2 0  9998,2 51725  53.2167 340.3148 0001752  54.9881 322.9756 15.08809873  1306,6917.972,95.439,541.05,538.625,0.0
